NORAD_CAT_ID,OBJECT_NAME,OBJECT_TYPE,EPOCH,MEAN_MOTION,ECCENTRICITY,INCLINATION,RA_OF_ASC_NODE,ARG_OF_PERICENTER,MEAN_ANOMALY,BSTAR,MEAN_MOTION_DOT,MEAN_MOTION_DDOT,TLE_LINE0,TLE_LINE1,TLE_LINE2,SEMIMAJOR_AXIS,PERIOD,APOGEE,PERIGEE,DECAYED
53400.0,STARLINK-4520,PAYLOAD,2023-11-08 11:45:11,15.08860873,0.0001577,53.2181,349.7972,91.3366,268.7807,0.00078397,0.00012218,0.0,0 STARLINK-4520,1 53400U 22097N   23312.48971308  .00012218  00000-0  78397-3 0  9994,2 53400  53.2181 349.7972 0001577  91.3366 268.7807 15.08860873 69372,6917.817,95.436,540.773,538.591,0.0
53400.0,STARLINK-4520,PAYLOAD,2023-11-08 19:42:06,15.08850396,0.0001284,53.2182,348.3119,100.3382,259.7755,0.00025155,3.719e-05,0.0,0 STARLINK-4520,1 53400U 22097N   23312.82091048  .00003719  00000-0  25155-3 0  9996,2 53400  53.2182 348.3119 0001284 100.3382 259.7755 15.08850396 69422,6917.849,95.437,540.602,538.825,0.0
53400.0,STARLINK-4520,PAYLOAD,2023-11-09 11:35:57,15.08857126,0.000143,53.2178,345.3388,103.0998,257.0154,0.00055214,8.514e-05,0.0,0 STARLINK-4520,1 53400U 22097N   23313.48331006  .00008514  00000-0  55214-3 0  9997,2 53400  53.2178 345.3388 0001430 103.0998 257.0154 15.08857126 70017,6917.828,95.436,540.682,538.704,0.0
53400.0,STARLINK-4520,PAYLOAD,2023-11-09 19:32:53,15.08848483,0.0001828,53.2175,343.8513,87.4034,272.7167,1.2841e-05,-8.4e-07,0.0,0 STARLINK-4520,1 53400U 22097N   23313.81451300 -.00000084  00000-0  12841-4 0  9999,2 53400  53.2175 343.8513 0001828  87.4034 272.7167 15.08848483 69577,6917.854,95.437,540.984,538.455,0.0
53400.0,STARLINK-4520,PAYLOAD,2023-11-10 08:15:58,15.0884836,0.0001434,53.217,341.4727,90.0912,270.0244,-5.4045e-05,-1.148e-05,0.0,0 STARLINK-4520,1 53400U 22097N   23314.34442681 -.00001148  00000-0 -54045-4 0  9995,2 53400  53.2170 341.4727 0001434  90.0912 270.0244 15.08848360 70147,6917.855,95.437,540.712,538.728,0.0
53400.0,STARLINK-4520,PAYLOAD,2023-11-10 19:23:40,15.08848153,0.0001402,53.216,339.3909,93.3155,266.7998,2.7454e-05,1.49e-06,0.0,0 STARLINK-4520,1 53400U 22097N   23314.80810542  .00000149  00000-0  27454-4 0  9993,2 53400  53.2160 339.3909 0001402  93.3155 266.7998 15.08848153 70210,6917.855,95.437,540.69,538.751,0.0
53400.0,STARLINK-4520,PAYLOAD,2023-11-11 11:17:32,15.0882952,0.000194,53.2172,336.4174,92.998,267.1234,-0.00025103,-4.28e-05,0.0,0 STARLINK-4520,1 53400U 22097N   23315.47051737 -.00004280  00000-0 -25103-3 0  9990,2 53400  53.2172 336.4174 0001940  92.9980 267.1234 15.08829520 69823,6917.912,95.438,541.119,538.435,0.0
53400.0,STARLINK-4520,PAYLOAD,2023-11-11 22:25:15,15.08815997,0.0001603,53.2161,334.3348,97.0362,263.0812,-0.00018165,-3.176e-05,0.0,0 STARLINK-4520,1 53400U 22097N   23315.93420852 -.00003176  00000-0 -18165-3 0  9992,2 53400  53.2161 334.3348 0001603  97.0362 263.0812 15.08815997 69894,6917.954,95.439,540.928,538.71,0.0
53400.0,STARLINK-4520,PAYLOAD,2023-11-12 11:08:20,15.08828092,0.0001622,53.2165,331.9545,104.2305,255.8868,4.2878e-05,3.94e-06,0.0,0 STARLINK-4520,1 53400U 22097N   23316.46412926  .00000394  00000-0  42878-4 0  9990,2 53400  53.2165 331.9545 0001622 104.2305 255.8868 15.08828092 69978,6917.917,95.438,540.904,538.66,0.0
53400.0,STARLINK-4520,PAYLOAD,2023-11-13 10:59:07,15.08855845,0.0001494,53.2165,327.4948,84.6856,275.4307,0.0008024,0.00012511,0.0,0 STARLINK-4520,1 53400U 22097N   23317.45772814  .00012511  00000-0  80240-3 0  9993,2 53400  53.2165 327.4948 0001494  84.6856 275.4307 15.08855845 70125,6917.832,95.437,540.73,538.663,0.0
53400.0,STARLINK-4520,PAYLOAD,2023-11-13 17:20:39,15.08861511,0.0001471,53.2164,326.3049,81.947,278.1689,0.00070883,0.00011018,0.0,0 STARLINK-4520,1 53400U 22097N   23317.72268502  .00011018  00000-0  70883-3 0  9990,2 53400  53.2164 326.3049 0001471  81.9470 278.1689 15.08861511 70659,6917.815,95.436,540.697,538.662,0.0
53400.0,STARLINK-4520,PAYLOAD,2023-11-14 07:39:07,15.08877643,0.0001492,53.2166,323.6289,83.6275,276.4887,0.00074872,0.0001166,0.0,0 STARLINK-4520,1 53400U 22097N   23318.31883182  .00011660  00000-0  74872-3 0  9998,2 53400  53.2166 323.6289 0001492  83.6275 276.4887 15.08877643 70746,6917.765,95.435,540.662,538.598,0.0
53400.0,STARLINK-4520,PAYLOAD,2023-11-14 17:11:25,15.0886468,0.0001363,53.2166,321.8454,85.2087,274.9061,0.00019912,2.885e-05,0.0,0 STARLINK-4520,1 53400U 22097N   23318.71626830  .00002885  00000-0  19912-3 0  9990,2 53400  53.2166 321.8454 0001363  85.2087 274.9061 15.08864680 70313,6917.805,95.436,540.613,538.727,0.0
53400.0,STARLINK-4520,PAYLOAD,2023-11-15 09:05:17,15.08843532,0.000204,53.2188,318.8727,91.5097,268.6129,-0.00015707,-2.787e-05,0.0,0 STARLINK-4520,1 53400U 22097N   23319.37867408 -.00002787  00000-0 -15707-3 0  9992,2 53400  53.2188 318.8727 0002040  91.5097 268.6129 15.08843532 70419,6917.87,95.437,541.146,538.323,0.0
53400.0,STARLINK-4520,PAYLOAD,2023-11-15 17:02:13,15.08840681,0.0002064,53.2193,317.3853,90.1725,269.9504,-0.00018077,-3.164e-05,0.0,0 STARLINK-4520,1 53400U 22097N   23319.70987443 -.00003164  00000-0 -18077-3 0  9994,2 53400  53.2193 317.3853 0002064  90.1725 269.9504 15.08840681 70950,6917.878,95.438,541.171,538.315,0.0
53400.0,STARLINK-4520,PAYLOAD,2023-11-16 08:56:04,15.08840005,0.0001896,53.2185,314.4085,89.3849,270.736,-0.00013936,-2.505e-05,0.0,0 STARLINK-4520,1 53400U 22097N   23320.37227619 -.00002505  00000-0 -13936-3 0  9998,2 53400  53.2185 314.4085 0001896  89.3849 270.7360 15.08840005 71057,6917.88,95.438,541.057,538.434,0.0
53400.0,STARLINK-4520,PAYLOAD,2023-11-16 16:53:00,15.08839902,0.0001672,53.2176,312.9234,91.0553,269.063,-0.00012131,-2.218e-05,0.0,0 STARLINK-4520,1 53400U 22097N   23320.70347645 -.00002218  00000-0 -12131-3 0  9994,2 53400  53.2176 312.9234 0001672  91.0553 269.0630 15.08839902 70616,6917.881,95.438,540.902,538.589,0.0
53400.0,STARLINK-4520,PAYLOAD,2023-11-17 08:46:51,15.08842437,0.0001548,53.2163,309.9504,94.4066,265.7103,0.00014787,2.066e-05,0.0,0 STARLINK-4520,1 53400U 22097N   23321.36587828  .00002066  00000-0  14787-3 0  9994,2 53400  53.2163 309.9504 0001548  94.4066 265.7103 15.08842437 71207,6917.873,95.437,540.809,538.667,0.0
53400.0,STARLINK-4520,PAYLOAD,2023-11-17 23:05:20,15.0883475,0.0001595,53.217,307.2729,91.8318,268.2857,0.00013288,1.827e-05,0.0,0 STARLINK-4520,1 53400U 22097N   23321.96204471  .00001827  00000-0  13288-3 0  9999,2 53400  53.2170 307.2729 0001595  91.8318 268.2857 15.08834750 71290,6917.896,95.438,540.865,538.658,0.0
53400.0,STARLINK-4520,PAYLOAD,2023-11-18 03:51:30,15.08837183,0.0001662,53.2165,306.3809,92.0655,268.0528,0.00015113,2.118e-05,0.0,0 STARLINK-4520,1 53400U 22097N   23322.16076409  .00002118  00000-0  15113-3 0  9993,2 53400  53.2165 306.3809 0001662  92.0655 268.0528 15.08837183 70830,6917.889,95.438,540.904,538.604,0.0
53400.0,STARLINK-4520,PAYLOAD,2023-11-18 05:26:52,15.08840184,0.0001629,53.2162,306.0827,112.3092,247.8073,0.00011796,1.59e-05,0.0,0 STARLINK-4520,1 53400U 22097N   23322.22700203  .00001590  00000-0  11796-3 0  9992,2 53400  53.2162 306.0827 0001629 112.3092 247.8073 15.08840184 71339,6917.88,95.438,540.872,538.618,0.0
53400.0,STARLINK-4520,PAYLOAD,2023-11-18 22:56:07,15.0884425,0.0001543,53.2163,302.8125,92.0753,268.0416,0.00017521,2.502e-05,0.0,0 STARLINK-4520,1 53400U 22097N   23322.95564086  .00002502  00000-0  17521-3 0  9995,2 53400  53.2163 302.8125 0001543  92.0753 268.0416 15.08844250 71444,6917.867,95.437,540.8,538.665,0.0
53400.0,STARLINK-4520,PAYLOAD,2023-11-19 08:28:26,15.08846978,0.0001683,53.216,301.0278,95.2353,264.8831,0.00037846,5.741e-05,0.0,0 STARLINK-4520,1 53400U 22097N   23323.35307934  .00005741  00000-0  37846-3 0  9997,2 53400  53.2160 301.0278 0001683  95.2353 264.8831 15.08846978 71014,6917.859,95.437,540.888,538.56,0.0
53400.0,STARLINK-4520,PAYLOAD,2023-11-20 03:33:03,15.08844302,0.0001661,53.2162,297.4592,95.1067,265.0114,9.2251e-05,1.181e-05,0.0,0 STARLINK-4520,1 53400U 22097N   23324.14795732  .00001181  00000-0  92251-4 0  9998,2 53400  53.2162 297.4592 0001661  95.1067 265.0114 15.08844302 71139,6917.867,95.437,540.881,538.583,0.0
53400.0,STARLINK-4520,PAYLOAD,2023-11-20 05:08:26,15.0884723,0.0001664,53.2162,297.1616,96.1863,263.9318,0.00013345,1.837e-05,0.0,0 STARLINK-4520,1 53400U 22097N   23324.21419585  .00001837  00000-0  13345-3 0  9999,2 53400  53.2162 297.1616 0001664  96.1863 263.9318 15.08847230 71632,6917.858,95.437,540.874,538.572,0.0
53400.0,STARLINK-4520,PAYLOAD,2023-11-20 22:37:41,15.08840453,0.0001695,53.2162,293.8904,96.6615,263.457,-5.7054e-05,-1.196e-05,0.0,0 STARLINK-4520,1 53400U 22097N   23324.94283762 -.00001196  00000-0 -57054-4 0  9991,2 53400  53.2162 293.8904 0001695  96.6615 263.4570 15.08840453 71746,6917.879,95.438,540.917,538.571,0.0
53400.0,STARLINK-4520,PAYLOAD,2023-11-21 03:23:50,15.08842107,0.000169,53.2172,292.9987,98.1112,262.0071,-2.5216e-06,-3.28e-06,0.0,0 STARLINK-4520,1 53400U 22097N   23325.14155858 -.00000328  00000-0 -25216-5 0  9990,2 53400  53.2172 292.9987 0001690  98.1112 262.0071 15.08842107 71280,6917.874,95.437,540.908,538.57,0.0
53400.0,STARLINK-4520,PAYLOAD,2023-11-21 04:59:13,15.08843112,0.0001598,53.2184,292.7052,93.402,266.7155,1.7834e-05,-4e-08,0.0,0 STARLINK-4520,1 53400U 22097N   23325.20779812 -.00000004  00000-0  17834-4 0  9995,2 53400  53.2184 292.7052 0001598  93.4020 266.7155 15.08843112 71783,6917.871,95.437,540.841,538.63,0.0
53400.0,STARLINK-4520,PAYLOAD,2023-11-21 20:53:05,15.08839947,0.0001708,53.2184,289.7321,100.4443,259.6742,5.5906e-05,6.02e-06,0.0,0 STARLINK-4520,1 53400U 22097N   23325.87019930  .00000602  00000-0  55906-4 0  9991,2 53400  53.2184 289.7321 0001708 100.4443 259.6742 15.08839947 71884,6917.881,95.438,540.927,538.564,0.0
53400.0,STARLINK-4520,PAYLOAD,2023-11-22 06:25:23,15.08849839,0.0001575,53.2179,287.9436,99.2549,260.8621,0.00010027,1.309e-05,0.0,0 STARLINK-4520,1 53400U 22097N   23326.26763180  .00001309  00000-0  10027-3 0  9997,2 53400  53.2179 287.9436 0001575  99.2549 260.8621 15.08849839 71453,6917.85,95.437,540.805,538.626,0.0
